CCSDS_OMM_VERS,COMMENT,CREATION_DATE,ORIGINATOR,OBJECT_NAME,OBJECT_ID,CENTER_NAME,REF_FRAME,TIME_SYSTEM,MEAN_ELEMENT_THEORY,EPOCH,MEAN_MOTION,ECCENTRICITY,INCLINATION,RA_OF_ASC_NODE,ARG_OF_PERICENTER,MEAN_ANOMALY,EPHEMERIS_TYPE,CLASSIFICATION_TYPE,NORAD_CAT_ID,ELEMENT_SET_NO,REV_AT_EPOCH,BSTAR,MEAN_MOTION_DOT,MEAN_MOTION_DDOT,SEMIMAJOR_AXIS,PERIOD,APOAPSIS,PERIAPSIS,OBJECT_TYPE,RCS_SIZE,COUNTRY_CODE,LAUNCH_DATE,SITE,DECAY_DATE,FILE,GP_ID,TLE_LINE0,TLE_LINE1,TLE_LINE2
"2.0","GENERATED VIA SPACE-TRACK.ORG API","2020-04-12T02:34:34","18 SPCS","COSMOS 1732","1986-015A","EARTH","TEME","UTC","SGP4","2020-04-11T20:17:21.645024","12.40984378","0.00256960","73.6083","90.3955","56.5440","303.8055","0","U","16593","999","54777","-0.00003091800000","-0.00000021","0.0000000000000","7880.570","116.036","1522.684","1482.185","PAYLOAD","LARGE","CIS","1986-02-11","PKMTR","","2732651","152033378","0 COSMOS 1732","1 16593U 86015A   20102.84538941 -.00000021 +00000-0 -30918-4 0  9991","2 16593 073.6083 090.3955 0025696 056.5440 303.8055 12.40984378547776"
"2.0","GENERATED VIA SPACE-TRACK.ORG API","2020-04-12T02:34:34","18 SPCS","COSMOS 2498","2014-028C","EARTH","TEME","UTC","SGP4","2020-04-11T19:52:14.645856","12.42886025","0.00197660","82.4426","82.8046","313.9966","45.9460","0","U","39763","999","26716","0.00029011000000","0.00000050","0.0000000000000","7872.529","115.859","1509.955","1478.833","PAYLOAD","LARGE","CIS","2014-05-23","PKMTR","","2732651","152044473","0 COSMOS 2498","1 39763U 14028C   20102.82794729 +.00000050 +00000-0 +29011-3 0  9997","2 39763 082.4426 082.8046 0019766 313.9966 045.9460 12.42886025267168"
"2.0","GENERATED VIA SPACE-TRACK.ORG API","2020-04-11T16:17:59","18 SPCS","COSMOS 1732","1986-015A","EARTH","TEME","UTC","SGP4","2020-04-11T04:48:46.128960","12.40984337","0.00256930","73.6082","91.2598","57.4972","302.8550","0","U","16593","999","54769","-0.00008387200000","-0.00000029","0.0000000000000","7880.570","116.036","1522.682","1482.187","PAYLOAD","LARGE","CIS","1986-02-11","PKMTR","","2732453","152009899","0 COSMOS 1732","1 16593U 86015A   20102.20053390 -.00000029 +00000-0 -83872-4 0  9996","2 16593 073.6082 091.2598 0025693 057.4972 302.8550 12.40984337547690"
"2.0","GENERATED VIA SPACE-TRACK.ORG API","2020-04-11T06:56:09","18 SPCS","COSMOS 2498","2014-028C","EARTH","TEME","UTC","SGP4","2020-04-11T04:24:55.143648","12.42886035","0.00197210","82.4426","83.2082","315.1829","44.7657","0","U","39763","999","26708","0.00031436000000","0.00000053","0.0000000000000","7872.529","115.859","1509.920","1478.869","PAYLOAD","LARGE","CIS","2014-05-23","PKMTR","","2732191","151999519","0 COSMOS 2498","1 39763U 14028C   20102.18397157  .00000053  00000-0  31436-3 0  9997","2 39763  82.4426  83.2082 0019721 315.1829  44.7657 12.42886035267083"
"2.0","GENERATED VIA SPACE-TRACK.ORG API","2020-04-10T22:26:10","18 SPCS","COSMOS 1732","1986-015A","EARTH","TEME","UTC","SGP4","2020-04-10T17:12:19.491264","12.40984321","0.00256900","73.6082","91.9080","58.2045","302.1496","0","U","16593","999","54788","-0.00010184000000","-0.00000031","0.0000000000000","7880.570","116.036","1522.680","1482.190","PAYLOAD","LARGE","CIS","1986-02-11","PKMTR","","2731939","151973819","0 COSMOS 1732","1 16593U 86015A   20101.71689226 -.00000031  00000-0 -10184-3 0  9992","2 16593  73.6082  91.9080 0025690  58.2045 302.1496 12.40984321547886"
"2.0","GENERATED VIA SPACE-TRACK.ORG API","2020-04-11T02:14:41","18 SPCS","COSMOS 2498","2014-028C","EARTH","TEME","UTC","SGP4","2020-04-10T16:49:25.512672","12.42885993","0.00197210","82.4426","83.5108","316.2343","43.7173","0","U","39763","999","26702","0.00031436000000","0.00000053","0.0000000000000","7872.529","115.859","1509.920","1478.869","PAYLOAD","LARGE","CIS","2014-05-23","PKMTR","","2732102","151992721","0 COSMOS 2498","1 39763U 14028C   20101.70098973 +.00000053 +00000-0 +31436-3 0  9998","2 39763 082.4426 083.5108 0019721 316.2343 043.7173 12.42885993267026"
"2.0","GENERATED VIA SPACE-TRACK.ORG API","2020-04-10T17:33:38","18 SPCS","COSMOS 1732","1986-015A","EARTH","TEME","UTC","SGP4","2020-04-10T05:35:52.848384","12.40984324","0.00256810","73.6081","92.5563","58.9220","301.4340","0","U","16593","999","54757","-0.00010761000000","-0.00000032","0.0000000000000","7880.570","116.036","1522.673","1482.197","PAYLOAD","LARGE","CIS","1986-02-11","PKMTR","","2731909","151957492","0 COSMOS 1732","1 16593U 86015A   20101.23325056 -.00000032 +00000-0 -10761-3 0  9999","2 16593 073.6081 092.5563 0025681 058.9220 301.4340 12.40984324547579"
"2.0","GENERATED VIA SPACE-TRACK.ORG API","2020-04-10T17:33:38","18 SPCS","COSMOS 2498","2014-028C","EARTH","TEME","UTC","SGP4","2020-04-10T05:13:55.881696","12.42885951","0.00197210","82.4426","83.8134","317.2857","42.6689","0","U","39763","999","26696","0.00031436000000","0.00000053","0.0000000000000","7872.529","115.859","1509.920","1478.869","PAYLOAD","LARGE","CIS","2014-05-23","PKMTR","","2731909","151968587","0 COSMOS 2498","1 39763U 14028C   20101.21800789 +.00000053 +00000-0 +31436-3 0  9990","2 39763 082.4426 083.8134 0019721 317.2857 042.6689 12.42885951266965"
"2.0","GENERATED VIA SPACE-TRACK.ORG API","2020-04-10T04:44:48","18 SPCS","COSMOS 1732","1986-015A","EARTH","TEME","UTC","SGP4","2020-04-09T19:55:30.648576","12.40984322","0.00256780","73.6081","93.0964","59.5110","300.8464","0","U","16593","999","54752","-0.00011492000000","-0.00000033","0.0000000000000","7880.570","116.036","1522.670","1482.199","PAYLOAD","LARGE","CIS","1986-02-11","PKMTR","","2731530","151928225","0 COSMOS 1732","1 16593U 86015A   20100.83021584 -.00000033 +00000-0 -11492-3 0  9996","2 16593 073.6081 093.0964 0025678 059.5110 300.8464 12.40984322547524"
"2.0","GENERATED VIA SPACE-TRACK.ORG API","2020-04-09T20:26:11","18 SPCS","COSMOS 2498","2014-028C","EARTH","TEME","UTC","SGP4","2020-04-09T17:38:26.252448","12.42885909","0.00197210","82.4426","84.1160","318.3371","41.6207","0","U","39763","999","26690","0.00031436000000","0.00000053","0.0000000000000","7872.530","115.859","1509.920","1478.869","PAYLOAD","LARGE","CIS","2014-05-23","PKMTR","","2731379","151921150","0 COSMOS 2498","1 39763U 14028C   20100.73502607  .00000053  00000-0  31436-3 0  9994","2 39763  82.4426  84.1160 0019721 318.3371  41.6207 12.42885909266903"
"2.0","GENERATED VIA SPACE-TRACK.ORG API","2020-04-09T18:14:09","18 SPCS","COSMOS 1732","1986-015A","EARTH","TEME","UTC","SGP4","2020-04-09T10:15:08.446176","12.40984322","0.00256710","73.6080","93.6366","60.1003","300.2586","0","U","16593","999","54747","-0.00010745000000","-0.00000032","0.0000000000000","7880.570","116.036","1522.665","1482.205","PAYLOAD","LARGE","CIS","1986-02-11","PKMTR","","2731278","151903253","0 COSMOS 1732","1 16593U 86015A   20100.42718109 -.00000032 +00000-0 -10745-3 0  9996","2 16593 073.6080 093.6366 0025671 060.1003 300.2586 12.40984322547470"
"2.0","GENERATED VIA SPACE-TRACK.ORG API","2020-04-09T18:14:09","18 SPCS","COSMOS 2498","2014-028C","EARTH","TEME","UTC","SGP4","2020-04-09T09:54:46.502208","12.42885860","0.00197390","82.4427","84.3179","319.0415","40.9184","0","U","39763","999","26686","0.00029339000000","0.00000050","0.0000000000000","7872.530","115.859","1509.934","1478.855","PAYLOAD","LARGE","CIS","2014-05-23","PKMTR","","2731278","151914350","0 COSMOS 2498","1 39763U 14028C   20100.41303822 +.00000050 +00000-0 +29339-3 0  9993","2 39763 082.4427 084.3179 0019739 319.0415 040.9184 12.42885860266869"
"2.0","GENERATED VIA SPACE-TRACK.ORG API","2020-04-09T02:17:41","18 SPCS","COSMOS 2498","2014-028C","EARTH","TEME","UTC","SGP4","2020-04-08T18:27:27.017280","12.42885661","0.00197790","82.4428","84.7219","320.5863","39.3777","0","U","39763","999","26678","0.00018375000000","0.00000035","0.0000000000000","7872.531","115.859","1509.967","1478.825","PAYLOAD","LARGE","CIS","2014-05-23","PKMTR","","2730956","151886963","0 COSMOS 2498","1 39763U 14028C   20099.76906270 +.00000035 +00000-0 +18375-3 0  9995","2 39763 082.4428 084.7219 0019779 320.5863 039.3777 12.42885661266787"
"2.0","GENERATED VIA SPACE-TRACK.ORG API","2020-04-09T02:17:41","18 SPCS","COSMOS 1732","1986-015A","EARTH","TEME","UTC","SGP4","2020-04-08T16:50:28.482720","12.40984332","0.00256650","73.6079","94.6089","61.1613","299.2003","0","U","16593","999","54738","-0.00006485200000","-0.00000026","0.0000000000000","7880.570","116.036","1522.660","1482.209","PAYLOAD","LARGE","CIS","1986-02-11","PKMTR","","2730956","151875866","0 COSMOS 1732","1 16593U 86015A   20099.70171855 -.00000026 +00000-0 -64852-4 0  9997","2 16593 073.6079 094.6089 0025665 061.1613 299.2003 12.40984332547384"
"2.0","GENERATED VIA SPACE-TRACK.ORG API","2020-04-08T14:26:10","18 SPCS","COSMOS 1732","1986-015A","EARTH","TEME","UTC","SGP4","2020-04-08T11:02:15.163008","12.40984337","0.00256600","73.6079","94.9330","61.5197","298.8426","0","U","16593","999","54760","-0.00003340200000","-0.00000022","0.0000000000000","7880.570","116.036","1522.656","1482.213","PAYLOAD","LARGE","CIS","1986-02-11","PKMTR","","2730590","151824095","0 COSMOS 1732","1 16593U 86015A   20099.45989772 -.00000022  00000-0 -33402-4 0  9997","2 16593  73.6079  94.9330 0025660  61.5197 298.8426 12.40984337547606"
"2.0","GENERATED VIA SPACE-TRACK.ORG API","2020-04-08T18:36:14","18 SPCS","COSMOS 2498","2014-028C","EARTH","TEME","UTC","SGP4","2020-04-08T10:43:47.279136","12.42885645","0.00197790","82.4428","84.9236","321.2872","38.6799","0","U","39763","999","26674","0.00018375000000","0.00000035","0.0000000000000","7872.531","115.859","1509.967","1478.825","PAYLOAD","LARGE","CIS","2014-05-23","PKMTR","","2730800","151843935","0 COSMOS 2498","1 39763U 14028C   20099.44707499 +.00000035 +00000-0 +18375-3 0  9992","2 39763 082.4428 084.9236 0019779 321.2872 038.6799 12.42885645266740"
